BEIDOU-2 IGSO-5         
1 37948U 11073A   26175.65702808 -.00000196  00000+0  00000+0 0  9995
2 37948  47.6633 271.4526 0114223 222.0346 107.5350  1.00272136 53204
LUCH-5A                 
1 37951U 11074B   26176.63453922 -.00000048  00000+0  00000+0 0  9995
2 37951   8.7753  73.6852 0002664  29.9506 205.4938  1.00272193 53135
BEIDOU-2 G5             
1 38091U 12008A   26176.75045227  .00000064  00000+0  00000+0 0  9994
2 38091   3.5957  69.6535 0008738 275.8962 257.2104  1.00275377 52450
BEIDOU-2 M3             
1 38250U 12018A   26174.63219166 -.00000109  00000+0  00000+0 0  9993
2 38250  55.7518 304.6576 0020193 273.5233  86.2361  1.86229600 96063
BEIDOU-2 M4             
1 38251U 12018B   26175.10144578 -.00000109  00000+0  00000+0 0  9991
2 38251  55.6511 303.8559 0011644 274.0414  85.8160  1.86229591 96078
SES-5                   
1 38652U 12036A   26176.52586043  .00000044  00000+0  00000+0 0  9997
2 38652   0.0440 319.4688 0002254 132.5340  15.9396  1.00270102 44547
BEIDOU-2 M6             
1 38775U 12050B   26175.88506278 -.00000094  00000+0  00000+0 0  9995
2 38775  56.5509  62.6397 0013559 358.0228   2.0098  1.86231110 93459
GSAT-10                 
1 38779U 12051B   26176.68398682 -.00000155  00000+0  00000+0 0  9995
2 38779   0.0610 259.6299 0008138 190.7160 152.7319  1.00272150 50189
NAVSTAR 67 (USA 239)    
1 38833U 12053A   26176.29325708  .00000038  00000+0  00000+0 0  9993
2 38833  53.5873 143.2672 0180747  65.8756 295.9735  2.00567663 99606
GSAT0103 (GALILEO-FM3)  
1 38857U 12055A   26175.51466267 -.00000036  00000+0  00000+0 0  9990
2 38857  55.8110 101.3445 0004768 306.0836  53.8462  1.70473530 85137
BEIDOU-2 G6             
1 38953U 12059A   26176.68398682 -.00000169  00000+0  00000+0 0  9992
2 38953   4.4435  73.4366 0009752 328.3512 202.3033  1.00271458 49998
LUCH-5B                 
1 38977U 12061A   26176.83102023 -.00000136  00000+0  00000+0 0  9994
2 38977  10.5026  49.7975 0002459 136.5618  10.5144  1.00272668 49696
COSMOS 2485 [GLONASS-M] 
1 39155U 13019A   26174.94888940 -.00000068  00000+0  00000+0 0  9990
2 39155  65.4235  73.3773 0023016 233.5300 126.2899  2.13103180102423
NAVSTAR 68 (USA 242)    
1 39166U 13023A   26176.65900811 -.00000046  00000+0  00000+0 0  9995
2 39166  54.4973 268.6283 0141475  51.0602 310.2306  2.00563550 96051
IRNSS-1A                
1 39199U 13034A   26176.74993227  .00000048  00000+0  00000+0 0  9997
2 39199  35.7396  63.7472 0018407 178.4200 356.6391  1.00277689 47450
NAVSTAR 69 (USA 248)    
1 39533U 14008A   26176.16216456  .00000052  00000+0  00000+0 0  9994
2 39533  53.6558 148.9944 0084219 231.3843 127.8374  2.00560355 89841
ASTRA 5B                
1 39617U 14011B   26176.81482462  .00000148  00000+0  00000+0 0  9991
2 39617   0.0542 322.9374 0002206 114.4652 153.3488  1.00272025 44753
COSMOS 2492 [GLONASS-M] 
1 39620U 14012A   26174.90776451 -.00000082  00000+0  00000+0 0  9996
2 39620  65.2933 313.7069 0010214 323.0851  36.8355  2.13103141 95380
IRNSS-1B                
1 39635U 14017A   26173.75560031  .00000117  00000+0  00000+0 0  9992
2 39635  28.9065 240.3095 0023496 164.9008 193.0039  1.00268591 44840
LUCH-5V                 
1 39727U 14023A   26176.75758149 -.00000263  00000+0  00000+0 0  9996
2 39727   5.1544  69.6639 0002402  47.9726 163.7407  1.00272155 44448
NAVSTAR 70 (USA 251)    
1 39741U 14026A   26176.43776981 -.00000104  00000+0  00000+0 0  9998
2 39741  56.4940 331.1963 0038118 326.3837  33.3680  2.00560534 88704
COSMOS 2500 [GLONASS-M] 
1 40001U 14032A   26176.01593649 -.00000085  00000+0  00000+0 0  9996
2 40001  65.2275 313.4156 0007680 185.1061 174.8760  2.13106005 93621
NAVSTAR 71 (USA 256)    
1 40105U 14045A   26176.03097330 -.00000068  00000+0  00000+0 0  9994
2 40105  55.3581  88.1524 0033642 118.2729 242.0683  2.00559023 86235
GSAT0201 (GALILEO 5)    
1 40128U 14050A   26175.42373058 -.00000085  00000+0  00000+0 0  9990
2 40128  48.8673 273.1394 1675706 179.6719 180.5031  1.85520133 78454
GSAT0202 (GALILEO 6)    
1 40129U 14050B   26175.14026136 -.00000085  00000+0  00000+0 0  9992
2 40129  48.8844 272.2366 1676801 180.3913 179.5080  1.85520680 80616
IRNSS-1C                
1 40269U 14061A   26176.68398682 -.00000155  00000+0  00000+0 0  9995
2 40269   6.5386  88.7700 0022592   3.4967 150.6688  1.00267985 42772
NAVSTAR 72 (USA 258)    
1 40294U 14068A   26175.90027962 -.00000090  00000+0  00000+0 0  9992
2 40294  56.9929  30.6575 0067208  70.8868 289.8931  2.00576832 85362
COSMOS 2501 [GLONASS-K] 
1 40315U 14075A   26175.33959343  .00000105  00000+0  00000+0 0  9994
2 40315  63.6173 190.1245 0022649 212.5723 147.3362  2.13101398 90001
NAVSTAR 73 (USA 260)    
1 40534U 15013A   26175.54153049  .00000081  00000+0  00000+0 0  9995
2 40534  53.1675 203.8732 0109709  40.1788 320.6928  2.00551009 81971
GSAT0203 (GALILEO 7)    
1 40544U 15017A   26175.25180748 -.00000098  00000+0  00000+0 0  9993
2 40544  56.7845 341.4029 0002115 270.3304  89.6420  1.70476337 69322
GSAT0204 (GALILEO 8)    
1 40545U 15017B   26174.92103312 -.00000099  00000+0  00000+0 0  9990
2 40545  56.7909 341.4306 0002093 241.0442 118.9316  1.70475870 32360
